KUIPER-00104            
1 65142U 25171L   25258.40356358  .00069721  00000+0  19479-2 0  9996
2 65142  51.8757 236.4816 0003101 274.8043  85.2589 15.36055640  6600
KUIPER-00105            
1 65143U 25171M   25258.65186894  .00050782  00000+0  13960-2 0  9996
2 65143  51.8742 235.1440 0004504 242.3390 117.7140 15.36695794  6656
KUIPER-00106            
1 65144U 25171N   25258.83341435 -.00670270  00000+0 -21656-1 0  9993
2 65144  51.8759 234.3615 0004771 256.8742 333.5868 15.33925407  5622
KUIPER-00107            
1 65145U 25171P   25258.66145310  .00047995  00000+0  13423-2 0  9993
2 65145  51.8740 235.2089 0003730 262.2840  97.7723 15.36188220  6652
KUIPER-00108            
1 65146U 25171Q   25258.67056787  .00038152  00000+0  10838-2 0  9996
2 65146  51.8780 235.2624 0004732 282.5540  77.4917 15.35801047  6655
KUIPER-00109            
1 65147U 25171R   25258.65746725  .00038289  00000+0  10690-2 0  9990
2 65147  51.8747 235.1761 0002682 249.1847 110.8852 15.36349375  6642
KUIPER-00110            
1 65148U 25171S   25258.46352055  .00038518  00000+0  10749-2 0  9999
2 65148  51.8751 236.1331 0003345 253.5455 106.5164 15.36357455  6616
KUIPER-00111            
1 65149U 25171T   25258.83341435 -.00435125  00000+0 -15285-1 0  9997
2 65149  51.8787 234.5387 0004011 279.7005 237.3998 15.30713204  5227
